start=new Date('2022-07-11T00:00:00.000Z').valueOf();
sats=[{"RA_OF_ASC_NODE":"313.3370","MEAN_MOTION":"15.06362533","OBJECT_NAME":"STARLINK-1446","GP_ID":"207872343","MEAN_ELEMENT_THEORY":"SGP4","MEAN_ANOMALY":"285.0440","INCLINATION":"53.0546","COUNTRY_CODE":"US","TIME_SYSTEM":"UTC","FILE":"3511318","REV_AT_EPOCH":"11705","TLE_LINE2":"2 45663  53.0546 313.3370 0001403  75.0704 285.0440 15.06362533117051","OBJECT_ID":"2020-035G","OBJECT_TYPE":"PAYLOAD","LAUNCH_DATE":"2020-06-04","RCS_SIZE":"LARGE","REF_FRAME":"TEME","PERIOD":"95.595","CENTER_NAME":"EARTH","SEMIMAJOR_AXIS":"6925.463","ELEMENT_SET_NO":"999","EPOCH":"2022-07-10T15:25:24.252384","BSTAR":"0.00030618000000","CLASSIFICATION_TYPE":"U","ARG_OF_PERICENTER":"75.0704","EPHEMERIS_TYPE":"0","SITE":"AFETR","MEAN_MOTION_DDOT":"0.0000000000000","DECAY_DATE":null,"TLE_LINE1":"1 45663U 20035G   22191.64264181  .00004277  00000-0  30618-3 0  9992","NORAD_CAT_ID":"45663","PERIAPSIS":"546.357","ECCENTRICITY":"0.00014030","MEAN_MOTION_DOT":"0.00004277","APOAPSIS":"548.300"},{"MEAN_MOTION_DOT":"-0.00002177","APOAPSIS":"548.325","PERIAPSIS":"546.196","ECCENTRICITY":"0.00015370","MEAN_MOTION_DDOT":"0.0000000000000","SITE":"AFETR","DECAY_DATE":null,"NORAD_CAT_ID":"45665","TLE_LINE1":"1 45665U 20035J   22191.74217253 -.00002177  00000-0 -12733-3 0  9990","EPOCH":"2022-07-10T17:48:43.706592","CLASSIFICATION_TYPE":"U","BSTAR":"-0.00012733000000","EPHEMERIS_TYPE":"0","ARG_OF_PERICENTER":"77.9439","OBJECT_TYPE":"PAYLOAD","OBJECT_ID":"2020-035J","RCS_SIZE":"LARGE","LAUNCH_DATE":"2020-06-04","REF_FRAME":"TEME","ELEMENT_SET_NO":"999","PERIOD":"95.593","CENTER_NAME":"EARTH","SEMIMAJOR_AXIS":"6925.396","TIME_SYSTEM":"UTC","COUNTRY_CODE":"US","INCLINATION":"53.0571","REV_AT_EPOCH":"11706","FILE":"3511318","TLE_LINE2":"2 45665  53.0571 312.8938 0001537  77.9439 282.1722 15.06384661117067","OBJECT_NAME":"STARLINK-1448","GP_ID":"207873087","MEAN_ELEMENT_THEORY":"SGP4","MEAN_ANOMALY":"282.1722","MEAN_MOTION":"15.06384661","RA_OF_ASC_NODE":"312.8938"},{"RCS_SIZE":"LARGE","LAUNCH_DATE":"2020-06-04","OBJECT_TYPE":"PAYLOAD","OBJECT_ID":"2020-035K","PERIOD":"95.594","CENTER_NAME":"EARTH","SEMIMAJOR_AXIS":"6925.427","ELEMENT_SET_NO":"999","REF_FRAME":"TEME","INCLINATION":"53.0554","COUNTRY_CODE":"US","TIME_SYSTEM":"UTC","TLE_LINE2":"2 45666  53.0554 313.4558 0001382  70.7091 289.4048 15.06374268117048","FILE":"3511318","REV_AT_EPOCH":"11704","GP_ID":"207871842","OBJECT_NAME":"STARLINK-1449","MEAN_ANOMALY":"289.4048","MEAN_ELEMENT_THEORY":"SGP4","RA_OF_ASC_NODE":"313.4558","MEAN_MOTION":"15.06374268","MEAN_MOTION_DOT":"0.00002722","APOAPSIS":"548.250","ECCENTRICITY":"0.00013820","PERIAPSIS":"546.335","SITE":"AFETR","MEAN_MOTION_DDOT":"0.0000000000000","TLE_LINE1":"1 45666U 20035K   22191.61315265  .00002722  00000-0  20172-3 0  9999","NORAD_CAT_ID":"45666","DECAY_DATE":null,"EPOCH":"2022-07-10T14:42:56.388960","EPHEMERIS_TYPE":"0","ARG_OF_PERICENTER":"70.7091","BSTAR":"0.00020172000000","CLASSIFICATION_TYPE":"U"},{"SITE":"AFETR","MEAN_MOTION_DDOT":"0.0000000000000","DECAY_DATE":null,"NORAD_CAT_ID":"45667","TLE_LINE1":"1 45667U 20035L   22191.74858505 -.00001636  00000-0 -90889-4 0  9991","EPOCH":"2022-07-10T17:57:57.748320","BSTAR":"-0.00009088900000","CLASSIFICATION_TYPE":"U","EPHEMERIS_TYPE":"0","ARG_OF_PERICENTER":"105.8078","MEAN_MOTION_DOT":"-0.00001636","APOAPSIS":"548.812","PERIAPSIS":"545.530","ECCENTRICITY":"0.00023700","OBJECT_NAME":"STARLINK-1450","GP_ID":"207850205","MEAN_ANOMALY":"254.3172","MEAN_ELEMENT_THEORY":"SGP4","MEAN_MOTION":"15.06413875","RA_OF_ASC_NODE":"312.8864","OBJECT_TYPE":"PAYLOAD","OBJECT_ID":"2020-035L","LAUNCH_DATE":"2020-06-04","RCS_SIZE":"LARGE","REF_FRAME":"TEME","ELEMENT_SET_NO":"999","PERIOD":"95.591","CENTER_NAME":"EARTH","SEMIMAJOR_AXIS":"6925.306","TIME_SYSTEM":"UTC","COUNTRY_CODE":"US","INCLINATION":"53.0557","REV_AT_EPOCH":"11671","FILE":"3511207","TLE_LINE2":"2 45667  53.0557 312.8864 0002370 105.8078 254.3172 15.06413875116718"},{"NORAD_CAT_ID":"45668","TLE_LINE1":"1 45668U 20035M   22191.78176227 -.00001772  00000-0 -10009-3 0  9996","DECAY_DATE":null,"MEAN_MOTION_DDOT":"0.0000000000000","SITE":"AFETR","EPHEMERIS_TYPE":"0","ARG_OF_PERICENTER":"72.8029","BSTAR":"-0.00010009000000","CLASSIFICATION_TYPE":"U","EPOCH":"2022-07-10T18:45:44.260128","APOAPSIS":"548.110","MEAN_MOTION_DOT":"-0.00001772","ECCENTRICITY":"0.00012610","PERIAPSIS":"546.364","MEAN_ANOMALY":"287.3098","MEAN_ELEMENT_THEORY":"SGP4","GP_ID":"207872843","OBJECT_NAME":"STARLINK-1451","MEAN_MOTION":"15.06392364","RA_OF_ASC_NODE":"312.7314","ELEMENT_SET_NO":"999","PERIOD":"95.593","SEMIMAJOR_AXIS":"6925.372","CENTER_NAME":"EARTH","REF_FRAME":"TEME","RCS_SIZE":"LARGE","LAUNCH_DATE":"2020-06-04","OBJECT_TYPE":"PAYLOAD","OBJECT_ID":"2020-035M","TLE_LINE2":"2 45668  53.0553 312.7314 0001261  72.8029 287.3098 15.06392364117084","REV_AT_EPOCH":"11708","FILE":"3511318","TIME_SYSTEM":"UTC","INCLINATION":"53.0553","COUNTRY_CODE":"US"},{"MEAN_MOTION_DDOT":"0.0000000000000","SITE":"AFETR","DECAY_DATE":null,"NORAD_CAT_ID":"45669","TLE_LINE1":"1 45669U 20035N   22191.76428541 -.00003583  00000-0 -22188-3 0  9997","EPOCH":"2022-07-10T18:20:34.259424","CLASSIFICATION_TYPE":"U","BSTAR":"-0.00022188000000","EPHEMERIS_TYPE":"0","ARG_OF_PERICENTER":"68.1341","MEAN_MOTION_DOT":"-0.00003583","APOAPSIS":"548.230","PERIAPSIS":"546.307","ECCENTRICITY":"0.00013880","OBJECT_NAME":"STARLINK-1452","GP_ID":"207872588","MEAN_ELEMENT_THEORY":"SGP4","MEAN_ANOMALY":"291.9796","MEAN_MOTION":"15.06382129","RA_OF_ASC_NODE":"312.7960","OBJECT_TYPE":"PAYLOAD","OBJECT_ID":"2020-035N","RCS_SIZE":"LARGE","LAUNCH_DATE":"2020-06-04","REF_FRAME":"TEME","ELEMENT_SET_NO":"999","PERIOD":"95.593","SEMIMAJOR_AXIS":"6925.403","CENTER_NAME":"EARTH","TIME_SYSTEM":"UTC","COUNTRY_CODE":"US","INCLINATION":"53.0552","REV_AT_EPOCH":"11707","FILE":"3511318","TLE_LINE2":"2 45669  53.0552 312.7960 0001388  68.1341 291.9796 15.06382129117079"},{"OBJECT_ID":"2020-035P","OBJECT_TYPE":"PAYLOAD","RCS_SIZE":"LARGE","LAUNCH_DATE":"2020-06-04","REF_FRAME":"TEME","ELEMENT_SET_NO":"999","SEMIMAJOR_AXIS":"6925.463","PERIOD":"95.595","CENTER_NAME":"EARTH","TIME_SYSTEM":"UTC","COUNTRY_CODE":"US","INCLINATION":"53.0541","REV_AT_EPOCH":"11735","FILE":"3511318","TLE_LINE2":"2 45670  53.0541 283.7437 0001524  76.8034 283.3125 15.06362498117351","OBJECT_NAME":"STARLINK-1453","GP_ID":"207871342","MEAN_ANOMALY":"283.3125","MEAN_ELEMENT_THEORY":"SGP4","MEAN_MOTION":"15.06362498","RA_OF_ASC_NODE":"283.7437","MEAN_MOTION_DOT":"0.00005307","APOAPSIS":"548.384","PERIAPSIS":"546.273","ECCENTRICITY":"0.00015240","MEAN_MOTION_DDOT":"0.0000000000000","SITE":"AFETR","DECAY_DATE":null,"NORAD_CAT_ID":"45670","TLE_LINE1":"1 45670U 20035P   22191.55694903  .00005307  00000-0  37527-3 0  9990","EPOCH":"2022-07-10T13:22:00.396192","BSTAR":"0.00037527000000","CLASSIFICATION_TYPE":"U","EPHEMERIS_TYPE":"0","ARG_OF_PERICENTER":"76.8034"},{"GP_ID":"207871592","OBJECT_NAME":"STARLINK-1454","MEAN_ANOMALY":"292.0616","MEAN_ELEMENT_THEORY":"SGP4","MEAN_MOTION":"15.06386213","RA_OF_ASC_NODE":"312.7782","RCS_SIZE":"LARGE","LAUNCH_DATE":"2020-06-04","OBJECT_TYPE":"PAYLOAD","OBJECT_ID":"2020-035Q","ELEMENT_SET_NO":"999","SEMIMAJOR_AXIS":"6925.391","PERIOD":"95.593","CENTER_NAME":"EARTH","REF_FRAME":"TEME","TIME_SYSTEM":"UTC","INCLINATION":"53.0544","COUNTRY_CODE":"US","TLE_LINE2":"2 45671  53.0544 312.7782 0001353  68.0516 292.0616 15.06386213117060","REV_AT_EPOCH":"11706","FILE":"3511318","MEAN_MOTION_DDOT":"0.0000000000000","SITE":"AFETR","NORAD_CAT_ID":"45671","TLE_LINE1":"1 45671U 20035Q   22191.76795811 -.00001320  00000-0 -69796-4 0  9991","DECAY_DATE":null,"EPOCH":"2022-07-10T18:25:51.580704","ARG_OF_PERICENTER":"68.0516","EPHEMERIS_TYPE":"0","BSTAR":"-0.00006979600000","CLASSIFICATION_TYPE":"U","MEAN_MOTION_DOT":"-0.00001320","APOAPSIS":"548.193","ECCENTRICITY":"0.00013530","PERIAPSIS":"546.319"},{"ECCENTRICITY":"0.00013150","PERIAPSIS":"546.335","APOAPSIS":"548.156","MEAN_MOTION_DOT":"0.00007895","ARG_OF_PERICENTER":"62.6390","EPHEMERIS_TYPE":"0","BSTAR":"0.00054844000000","CLASSIFICATION_TYPE":"U","EPOCH":"2022-07-10T17:04:55.450560","TLE_LINE1":"1 45672U 20035R   22191.71175290  .00007895  00000-0  54844-3 0  9998","NORAD_CAT_ID":"45672","DECAY_DATE":null,"MEAN_MOTION_DDOT":"0.0000000000000","SITE":"AFETR","TLE_LINE2":"2 45672  53.0542 283.0428 0001315  62.6390 297.4733 15.06389529117482","FILE":"3511318","REV_AT_EPOCH":"11748","INCLINATION":"53.0542","COUNTRY_CODE":"US","TIME_SYSTEM":"UTC","SEMIMAJOR_AXIS":"6925.381","PERIOD":"95.593","CENTER_NAME":"EARTH","ELEMENT_SET_NO":"999","REF_FRAME":"TEME","LAUNCH_DATE":"2020-06-04","RCS_SIZE":"LARGE","OBJECT_ID":"2020-035R","OBJECT_TYPE":"PAYLOAD","RA_OF_ASC_NODE":"283.0428","MEAN_MOTION":"15.06389529","MEAN_ELEMENT_THEORY":"SGP4","MEAN_ANOMALY":"297.4733","GP_ID":"207872344","OBJECT_NAME":"STARLINK-1455"},{"SITE":"AFETR","MEAN_MOTION_DDOT":"0.0000000000000","TLE_LINE1":"1 45673U 20035S   22191.78271268 -.00002107  00000-0 -12261-3 0  9998","NORAD_CAT_ID":"45673","DECAY_DATE":null,"EPOCH":"2022-07-10T18:47:06.375552","ARG_OF_PERICENTER":"74.8360","EPHEMERIS_TYPE":"0","CLASSIFICATION_TYPE":"U","BSTAR":"-0.00012261000000","MEAN_MOTION_DOT":"-0.00002107","APOAPSIS":"548.265","ECCENTRICITY":"0.00014810","PERIAPSIS":"546.214","GP_ID":"207849794","OBJECT_NAME":"STARLINK-1456","MEAN_ELEMENT_THEORY":"SGP4","MEAN_ANOMALY":"285.2793","RA_OF_ASC_NODE":"312.7078","MEAN_MOTION":"15.06391650","RCS_SIZE":"LARGE","LAUNCH_DATE":"2020-06-04","OBJECT_TYPE":"PAYLOAD","OBJECT_ID":"2020-035S","SEMIMAJOR_AXIS":"6925.374","PERIOD":"95.593","CENTER_NAME":"EARTH","ELEMENT_SET_NO":"999","REF_FRAME":"TEME","INCLINATION":"53.0571","COUNTRY_CODE":"US","TIME_SYSTEM":"UTC","TLE_LINE2":"2 45673  53.0571 312.7078 0001481  74.8360 285.2793 15.06391650116671","FILE":"3511208","REV_AT_EPOCH":"11667"}];
